{"type": "FeatureCollection", "features": [ {"type": "Feature", "properties": {"norad_id": 66052, "name": "HRC MONOBLOCK CAMERA", "group": "stations", "lat": 51.58334807551824, "lon": 166.0560966761175, "alt_km": 396.08879490462186, "timestamp": "2025-12-26T08:37:53.326564+00:00", "meta": {"OBJECT_NAME": "HRC MONOBLOCK CAMERA", "OBJECT_ID": "1998-067XR", "EPOCH": "2025-12-25T15:16:26.141088", "MEAN_MOTION": 15.55029528, "ECCENTRICITY": 0.0002034, "INCLINATION": 51.6301, "RA_OF_ASC_NODE": 77.1613, "ARG_OF_PERICENTER": 247.8155, "MEAN_ANOMALY": 112.262, "EPHEMERIS_TYPE": 0, "CLASSIFICATION_TYPE": "U", "NORAD_CAT_ID": 66052, "ELEMENT_SET_NO": 999, "REV_AT_EPOCH": 1084, "BSTAR": 0.00054388, "MEAN_MOTION_DOT": 0.000369, "MEAN_MOTION_DDOT": 0}, "tle": {"line1": "1 66052U 98067XR  25359.63641367  .00036900  00000+0  54388-3 0  9997", "line2": "2 66052  51.6301  77.1613 0002034 247.8155 112.2620 15.55029528 10842"}}, "geometry": {"type": "Point", "coordinates": [166.0560966761175, 51.58334807551824]}}, {"type": "Feature", "properties": {"norad_id": 66174, "name": "HTV-X1", "group": "stations", "lat": 49.91716446648924, "lon": -175.26346495633373, "alt_km": 412.3814259318633, "timestamp": "2025-12-26T08:37:53.326575+00:00", "meta": {"OBJECT_NAME": "HTV-X1", "OBJECT_ID": "2025-241A", "EPOCH": "2025-12-25T21:21:30.152448", "MEAN_MOTION": 15.49823805, "ECCENTRICITY": 0.00032345, "INCLINATION": 51.6319, "RA_OF_ASC_NODE": 77.3524, "ARG_OF_PERICENTER": 301.523, "MEAN_ANOMALY": 58.5443, "EPHEMERIS_TYPE": 0, "CLASSIFICATION_TYPE": "U", "NORAD_CAT_ID": 66174, "ELEMENT_SET_NO": 999, "REV_AT_EPOCH": 51, "BSTAR": 0.00025321218, "MEAN_MOTION_DOT": 0.00013933, "MEAN_MOTION_DDOT": 0}, "tle": {"line1": "1 66174U 25241A   25359.88993232  .00013933  00000+0  25321-3 0  9990", "line2": "2 66174  51.6319  77.3524 0003234 301.5230  58.5443 15.49823805   515"}}, "geometry": {"type": "Point", "coordinates": [-175.26346495633373, 49.91716446648924]}}, {"type": "Feature", "properties": {"norad_id": 66515, "name": "SZ-21 MODULE", "group": "stations", "lat": 40.97597260473644, "lon": 33.42451064024328, "alt_km": 373.3096582739099, "timestamp": "2025-12-26T08:37:53.326585+00:00", "meta": {"OBJECT_NAME": "SZ-21 MODULE", "OBJECT_ID": "2025-246C", "EPOCH": "2025-12-25T04:36:53.601984", "MEAN_MOTION": 15.63137537, "ECCENTRICITY": 0.0004589, "INCLINATION": 41.4767, "RA_OF_ASC_NODE": 300.0489, "ARG_OF_PERICENTER": 327.9877, "MEAN_ANOMALY": 32.0683, "EPHEMERIS_TYPE": 0, "CLASSIFICATION_TYPE": "U", "NORAD_CAT_ID": 66515, "ELEMENT_SET_NO": 999, "REV_AT_EPOCH": 639, "BSTAR": 0.00031272, "MEAN_MOTION_DOT": 0.00029146, "MEAN_MOTION_DDOT": 0}, "tle": {"line1": "1 66515U 25246C   25359.19228706  .00029146  00000+0  31272-3 0  9990", "line2": "2 66515  41.4767 300.0489 0004589 327.9877  32.0683 15.63137537  6398"}}, "geometry": {"type": "Point", "coordinates": [33.42451064024328, 40.97597260473644]}}, {"type": "Feature", "properties": {"norad_id": 66645, "name": "SHENZHOU-22", "group": "stations", "lat": 15.161598028058055, "lon": -48.144343956400505, "alt_km": 389.3218154183205, "timestamp": "2025-12-26T08:37:53.326595+00:00", "meta": {"OBJECT_NAME": "SHENZHOU-22", "OBJECT_ID": "2025-272A", "EPOCH": "2025-12-25T20:14:16.934784", "MEAN_MOTION": 15.59690263, "ECCENTRICITY": 0.00084341, "INCLINATION": 41.4681, "RA_OF_ASC_NODE": 297.125, "ARG_OF_PERICENTER": 146.1754, "MEAN_ANOMALY": 213.9624, "EPHEMERIS_TYPE": 0, "CLASSIFICATION_TYPE": "U", "NORAD_CAT_ID": 66645, "ELEMENT_SET_NO": 999, "REV_AT_EPOCH": 26598, "BSTAR": 0.00020858961, "MEAN_MOTION_DOT": 0.00016869, "MEAN_MOTION_DDOT": 0}, "tle": {"line1": "1 66645U 25272A   25359.84325156  .00016869  00000+0  20859-3 0  9999", "line2": "2 66645  41.4681 297.1250 0008434 146.1754 213.9624 15.59690263265989"}}, "geometry": {"type": "Point", "coordinates": [-48.144343956400505, 15.161598028058055]}}, {"type": "Feature", "properties": {"norad_id": 66664, "name": "SOYUZ-MS 28", "group": "stations", "lat": 49.91714810480773, "lon": -175.2633723134935, "alt_km": 412.38206435341544, "timestamp": "2025-12-26T08:37:53.326605+00:00", "meta": {"OBJECT_NAME": "SOYUZ-MS 28", "OBJECT_ID": "2025-275A", "EPOCH": "2025-12-25T21:21:30.151584", "MEAN_MOTION": 15.49823805, "ECCENTRICITY": 0.0003235, "INCLINATION": 51.6319, "RA_OF_ASC_NODE": 77.3524, "ARG_OF_PERICENTER": 301.523, "MEAN_ANOMALY": 58.5443, "EPHEMERIS_TYPE": 0, "CLASSIFICATION_TYPE": "U", "NORAD_CAT_ID": 66664, "ELEMENT_SET_NO": 999, "REV_AT_EPOCH": 448, "BSTAR": 0.00025321, "MEAN_MOTION_DOT": 0.00013933, "MEAN_MOTION_DDOT": 0}, "tle": {"line1": "1 66664U 25275A   25359.88993231  .00013933  00000+0  25321-3 0  9990", "line2": "2 66664  51.6319  77.3524 0003235 301.5230  58.5443 15.49823805  4480"}}, "geometry": {"type": "Point", "coordinates": [-175.2633723134935, 49.91714810480773]}}, {"type": "Feature", "properties": {"norad_id": 66906, "name": "1998-067XS", "group": "stations", "lat": -10.57280816991068, "lon": -96.6599681947553, "alt_km": 414.51983597019716, "timestamp": "2025-12-26T08:37:53.326616+00:00", "meta": {"OBJECT_NAME": "1998-067XS", "OBJECT_ID": "1998-067XS", "EPOCH": "2025-12-25T11:42:06.367680", "MEAN_MOTION": 15.51255627, "ECCENTRICITY": 0.0002728, "INCLINATION": 51.6324, "RA_OF_ASC_NODE": 79.1676, "ARG_OF_PERICENTER": 267.8022, "MEAN_ANOMALY": 92.2655, "EPHEMERIS_TYPE": 0, "CLASSIFICATION_TYPE": "U", "NORAD_CAT_ID": 66906, "ELEMENT_SET_NO": 999, "REV_AT_EPOCH": 359, "BSTAR": 0.00047654, "MEAN_MOTION_DOT": 0.00028077, "MEAN_MOTION_DDOT": 0}, "tle": {"line1": "1 66906U 98067XS  25359.48757370  .00028077  00000+0  47654-3 0  9994", "line2": "2 66906  51.6324  79.1676 0002728 267.8022  92.2655 15.51255627  3597"}}, "geometry": {"type": "Point", "coordinates": [-96.6599681947553, -10.57280816991068]}}, {"type": "Feature", "properties": {"norad_id": 66907, "name": "1998-067XT", "group": "stations", "lat": -51.34203457026253, "lon": -7.391462498826287, "alt_km": 409.90021766193786, "timestamp": "2025-12-26T08:37:53.326626+00:00", "meta": {"OBJECT_NAME": "1998-067XT", "OBJECT_ID": "1998-067XT", "EPOCH": "2025-12-24T10:39:56.166048", "MEAN_MOTION": 15.52879993, "ECCENTRICITY": 0.00038856, "INCLINATION": 51.6313, "RA_OF_ASC_NODE": 84.2012, "ARG_OF_PERICENTER": 298.2919, "MEAN_ANOMALY": 61.7678, "EPHEMERIS_TYPE": 0, "CLASSIFICATION_TYPE": "U", "NORAD_CAT_ID": 66907, "ELEMENT_SET_NO": 999, "REV_AT_EPOCH": 343, "BSTAR": 0.0010726177, "MEAN_MOTION_DOT": 0.00067981, "MEAN_MOTION_DDOT": 0}, "tle": {"line1": "1 66907U 98067XT  25358.44440007  .00067981  00000+0  10726-2 0  9992", "line2": "2 66907  51.6313  84.2012 0003885 298.2919  61.7678 15.52879993  3433"}}, "geometry": {"type": "Point", "coordinates": [-7.391462498826287, -51.34203457026253]}}, {"type": "Feature", "properties": {"norad_id": 66908, "name": "1998-067XU", "group": "stations", "lat": -50.19228410452271, "lon": 2.7311754718817562, "alt_km": 409.4450550916954, "timestamp": "2025-12-26T08:37:53.326636+00:00", "meta": {"OBJECT_NAME": "1998-067XU", "OBJECT_ID": "1998-067XU", "EPOCH": "2025-12-24T10:38:25.805472", "MEAN_MOTION": 15.52977314, "ECCENTRICITY": 0.00038638, "INCLINATION": 51.6323, "RA_OF_ASC_NODE": 84.1936, "ARG_OF_PERICENTER": 296.7785, "MEAN_ANOMALY": 63.2809, "EPHEMERIS_TYPE": 0, "CLASSIFICATION_TYPE": "U", "NORAD_CAT_ID": 66908, "ELEMENT_SET_NO": 999, "REV_AT_EPOCH": 343, "BSTAR": 0.0010585814, "MEAN_MOTION_DOT": 0.00067317, "MEAN_MOTION_DDOT": 0}, "tle": {"line1": "1 66908U 98067XU  25358.44335423  .00067317  00000+0  10586-2 0  9995", "line2": "2 66908  51.6323  84.1936 0003863 296.7785  63.2809 15.52977314  3438"}}, "geometry": {"type": "Point", "coordinates": [2.7311754718817562, -50.19228410452271]}}, {"type": "Feature", "properties": {"norad_id": 66909, "name": "SILVERSAT", "group": "stations", "lat": -46.84590490528345, "lon": 16.952056503837717, "alt_km": 408.56662480476734, "timestamp": "2025-12-26T08:37:53.326649+00:00", "meta": {"OBJECT_NAME": "SILVERSAT", "OBJECT_ID": "1998-067XV", "EPOCH": "2025-12-24T12:08:54.950784", "MEAN_MOTION": 15.53202951, "ECCENTRICITY": 0.00038249, "INCLINATION": 51.631, "RA_OF_ASC_NODE": 83.8633, "ARG_OF_PERICENTER": 300.8028, "MEAN_ANOMALY": 59.2585, "EPHEMERIS_TYPE": 0, "CLASSIFICATION_TYPE": "U", "NORAD_CAT_ID": 66909, "ELEMENT_SET_NO": 999, "REV_AT_EPOCH": 344, "BSTAR": 0.0011617624, "MEAN_MOTION_DOT": 0.00074602, "MEAN_MOTION_DDOT": 0}, "tle": {"line1": "1 66909U 98067XV  25358.50619156  .00074602  00000+0  11618-2 0  9993", "line2": "2 66909  51.6310  83.8633 0003824 300.8028  59.2585 15.53202951  3445"}}, "geometry": {"type": "Point", "coordinates": [16.952056503837717, -46.84590490528345]}}, {"type": "Feature", "properties": {"norad_id": 66910, "name": "1998-067XW", "group": "stations", "lat": -42.56634406015416, "lon": 27.9195641661658, "alt_km": 408.71546363988546, "timestamp": "2025-12-26T08:37:53.326659+00:00", "meta": {"OBJECT_NAME": "1998-067XW", "OBJECT_ID": "1998-067XW", "EPOCH": "2025-12-25T05:05:39.017760", "MEAN_MOTION": 15.53228928, "ECCENTRICITY": 0.0003837, "INCLINATION": 51.6308, "RA_OF_ASC_NODE": 80.3284, "ARG_OF_PERICENTER": 278.3824, "MEAN_ANOMALY": 81.6731, "EPHEMERIS_TYPE": 0, "CLASSIFICATION_TYPE": "U", "NORAD_CAT_ID": 66910, "ELEMENT_SET_NO": 999, "REV_AT_EPOCH": 355, "BSTAR": 0.0010169, "MEAN_MOTION_DOT": 0.00065225, "MEAN_MOTION_DDOT": 0}, "tle": {"line1": "1 66910U 98067XW  25359.21225715  .00065225  00000+0  10169-2 0  9999", "line2": "2 66910  51.6308  80.3284 0003837 278.3824  81.6731 15.53228928  3551"}}, "geometry": {"type": "Point", "coordinates": [27.9195641661658, -42.56634406015416]}}]}